{"fetched_at":"2026-07-18T17:30:01.066Z","source":"https://celestrak.org/NORAD/elements/gp.php?NAME=JILIN&FORMAT=JSON","constellation":"jilin-1-gaofen","records":[{"OBJECT_NAME":"JILIN-1 GAOFEN 3A","OBJECT_ID":"2019-032C","EPOCH":"2026-07-18T07:10:28.754688","CLASSIFICATION_TYPE":"U","MEAN_MOTION":15.3323022,"ECCENTRICITY":0.00048717,"INCLINATION":44.9733,"RA_OF_ASC_NODE":185.624,"ARG_OF_PERICENTER":128.2524,"MEAN_ANOMALY":231.88,"EPHEMERIS_TYPE":0,"NORAD_CAT_ID":44312,"ELEMENT_SET_NO":999,"REV_AT_EPOCH":39261,"BSTAR":0.00020457128,"MEAN_MOTION_DOT":0.0000639,"MEAN_MOTION_DDOT":0},{"OBJECT_NAME":"JILIN-1 GAOFEN 2A","OBJECT_ID":"2019-075A","EPOCH":"2026-07-18T06:21:31.953888","CLASSIFICATION_TYPE":"U","MEAN_MOTION":15.40060637,"ECCENTRICITY":0.00048651,"INCLINATION":97.4957,"RA_OF_ASC_NODE":283.7978,"ARG_OF_PERICENTER":342.5737,"MEAN_ANOMALY":17.5341,"EPHEMERIS_TYPE":0,"NORAD_CAT_ID":44777,"ELEMENT_SET_NO":999,"REV_AT_EPOCH":36966,"BSTAR":0.00018204353,"MEAN_MOTION_DOT":0.00007192,"MEAN_MOTION_DDOT":0},{"OBJECT_NAME":"JILIN-1 GAOFEN 2B","OBJECT_ID":"2019-086A","EPOCH":"2026-07-18T06:25:19.071840","CLASSIFICATION_TYPE":"U","MEAN_MOTION":15.21018597,"ECCENTRICITY":0.00135336,"INCLINATION":97.4867,"RA_OF_ASC_NODE":271.0682,"ARG_OF_PERICENTER":204.529,"MEAN_ANOMALY":155.5303,"EPHEMERIS_TYPE":0,"NORAD_CAT_ID":44836,"ELEMENT_SET_NO":999,"REV_AT_EPOCH":36521,"BSTAR":0.00014137429,"MEAN_MOTION_DOT":0.00003072,"MEAN_MOTION_DDOT":0},{"OBJECT_NAME":"JILIN-1 GAOFEN 3E","OBJECT_ID":"2020-065D","EPOCH":"2026-07-18T06:49:44.025312","CLASSIFICATION_TYPE":"U","MEAN_MOTION":15.6752844,"ECCENTRICITY":0.00096806,"INCLINATION":97.2201,"RA_OF_ASC_NODE":252.6964,"ARG_OF_PERICENTER":62.0705,"MEAN_ANOMALY":298.1535,"EPHEMERIS_TYPE":0,"NORAD_CAT_ID":46457,"ELEMENT_SET_NO":999,"REV_AT_EPOCH":32462,"BSTAR":0.00041669011,"MEAN_MOTION_DOT":0.00045357,"MEAN_MOTION_DDOT":0},{"OBJECT_NAME":"JILIN-1 GAOFEN 3F","OBJECT_ID":"2020-065E","EPOCH":"2026-07-18T07:20:09.318624","CLASSIFICATION_TYPE":"U","MEAN_MOTION":15.64190486,"ECCENTRICITY":0.00110055,"INCLINATION":97.2159,"RA_OF_ASC_NODE":249.8915,"ARG_OF_PERICENTER":47.4186,"MEAN_ANOMALY":312.8,"EPHEMERIS_TYPE":0,"NORAD_CAT_ID":46458,"ELEMENT_SET_NO":999,"REV_AT_EPOCH":32456,"BSTAR":0.00041947001,"MEAN_MOTION_DOT":0.00039964,"MEAN_MOTION_DDOT":0},{"OBJECT_NAME":"JILIN-1 GAOFEN 3G","OBJECT_ID":"2020-065F","EPOCH":"2026-07-18T07:01:49.153728","CLASSIFICATION_TYPE":"U","MEAN_MOTION":15.77460477,"ECCENTRICITY":0.00058533,"INCLINATION":97.2213,"RA_OF_ASC_NODE":257.2661,"ARG_OF_PERICENTER":258.513,"MEAN_ANOMALY":101.548,"EPHEMERIS_TYPE":0,"NORAD_CAT_ID":46459,"ELEMENT_SET_NO":999,"REV_AT_EPOCH":32483,"BSTAR":0.00049314993,"MEAN_MOTION_DOT":0.00081957,"MEAN_MOTION_DDOT":0},{"OBJECT_NAME":"JILIN-1 GAOFEN 3H","OBJECT_ID":"2020-065G","EPOCH":"2026-07-18T06:46:11.700768","CLASSIFICATION_TYPE":"U","MEAN_MOTION":15.72672143,"ECCENTRICITY":0.00068981,"INCLINATION":97.2163,"RA_OF_ASC_NODE":253.3649,"ARG_OF_PERICENTER":192.5522,"MEAN_ANOMALY":167.5572,"EPHEMERIS_TYPE":0,"NORAD_CAT_ID":46460,"ELEMENT_SET_NO":999,"REV_AT_EPOCH":32476,"BSTAR":0.00045203032,"MEAN_MOTION_DOT":0.00060927,"MEAN_MOTION_DDOT":0},{"OBJECT_NAME":"JILIN-1 GAOFEN 2D","OBJECT_ID":"2021-086A","EPOCH":"2026-07-18T06:56:54.598848","CLASSIFICATION_TYPE":"U","MEAN_MOTION":15.10878783,"ECCENTRICITY":0.0033797,"INCLINATION":97.6512,"RA_OF_ASC_NODE":321.9947,"ARG_OF_PERICENTER":40.3419,"MEAN_ANOMALY":320.0308,"EPHEMERIS_TYPE":0,"NORAD_CAT_ID":49256,"ELEMENT_SET_NO":999,"REV_AT_EPOCH":26541,"BSTAR":0.00014597337,"MEAN_MOTION_DOT":0.00002394,"MEAN_MOTION_DDOT":0},{"OBJECT_NAME":"JILIN-1 GAOFEN 2F","OBJECT_ID":"2021-097A","EPOCH":"2026-07-18T06:59:08.735712","CLASSIFICATION_TYPE":"U","MEAN_MOTION":15.07962522,"ECCENTRICITY":0.00199677,"INCLINATION":97.674,"RA_OF_ASC_NODE":325.4231,"ARG_OF_PERICENTER":119.8817,"MEAN_ANOMALY":240.4398,"EPHEMERIS_TYPE":0,"NORAD_CAT_ID":49338,"ELEMENT_SET_NO":999,"REV_AT_EPOCH":26100,"BSTAR":0.0001518733,"MEAN_MOTION_DOT":0.00002279,"MEAN_MOTION_DDOT":0},{"OBJECT_NAME":"JILIN-1 GAOFEN 3D27","OBJECT_ID":"2022-048B","EPOCH":"2026-07-18T06:17:37.800384","CLASSIFICATION_TYPE":"U","MEAN_MOTION":15.83885329,"ECCENTRICITY":0.000573,"INCLINATION":97.5738,"RA_OF_ASC_NODE":316.2229,"ARG_OF_PERICENTER":237.5678,"MEAN_ANOMALY":122.5037,"EPHEMERIS_TYPE":0,"NORAD_CAT_ID":52444,"ELEMENT_SET_NO":999,"REV_AT_EPOCH":23438,"BSTAR":0.00059294714,"MEAN_MOTION_DOT":0.00132938,"MEAN_MOTION_DDOT":0},{"OBJECT_NAME":"JILIN-1 GAOFEN 3D28","OBJECT_ID":"2022-048C","EPOCH":"2026-07-18T07:24:43.901280","CLASSIFICATION_TYPE":"U","MEAN_MOTION":15.89241636,"ECCENTRICITY":0.00053486,"INCLINATION":97.5671,"RA_OF_ASC_NODE":316.5989,"ARG_OF_PERICENTER":238.7128,"MEAN_ANOMALY":121.362,"EPHEMERIS_TYPE":0,"NORAD_CAT_ID":52445,"ELEMENT_SET_NO":999,"REV_AT_EPOCH":23445,"BSTAR":0.00064636623,"MEAN_MOTION_DOT":0.00184559,"MEAN_MOTION_DDOT":0.000014429362},{"OBJECT_NAME":"JILIN-1 GAOFEN 3D29","OBJECT_ID":"2022-048D","EPOCH":"2026-07-18T07:26:18.504096","CLASSIFICATION_TYPE":"U","MEAN_MOTION":15.84110909,"ECCENTRICITY":0.00046409,"INCLINATION":97.5734,"RA_OF_ASC_NODE":316.6419,"ARG_OF_PERICENTER":222.5255,"MEAN_ANOMALY":137.5656,"EPHEMERIS_TYPE":0,"NORAD_CAT_ID":52446,"ELEMENT_SET_NO":999,"REV_AT_EPOCH":23441,"BSTAR":0.00057185151,"MEAN_MOTION_DOT":0.00129475,"MEAN_MOTION_DDOT":0},{"OBJECT_NAME":"JILIN-1 GAOFEN 3D31","OBJECT_ID":"2022-048F","EPOCH":"2026-07-18T07:35:58.011360","CLASSIFICATION_TYPE":"U","MEAN_MOTION":15.95688554,"ECCENTRICITY":0.00062689,"INCLINATION":97.5726,"RA_OF_ASC_NODE":318.0542,"ARG_OF_PERICENTER":241.5659,"MEAN_ANOMALY":118.4985,"EPHEMERIS_TYPE":0,"NORAD_CAT_ID":52448,"ELEMENT_SET_NO":999,"REV_AT_EPOCH":23452,"BSTAR":0.00068939367,"MEAN_MOTION_DOT":0.0027529,"MEAN_MOTION_DDOT":0.000031935779},{"OBJECT_NAME":"JILIN-1 GAOFEN 03D09","OBJECT_ID":"2022-098B","EPOCH":"2026-07-18T08:13:11.911008","CLASSIFICATION_TYPE":"U","MEAN_MOTION":15.70601641,"ECCENTRICITY":0.00036818,"INCLINATION":97.5635,"RA_OF_ASC_NODE":331.4532,"ARG_OF_PERICENTER":221.5876,"MEAN_ANOMALY":138.5107,"EPHEMERIS_TYPE":0,"NORAD_CAT_ID":53445,"ELEMENT_SET_NO":999,"REV_AT_EPOCH":21951,"BSTAR":0.00044044301,"MEAN_MOTION_DOT":0.00054328,"MEAN_MOTION_DDOT":0},{"OBJECT_NAME":"JILIN-1 GAOFEN 03D43","OBJECT_ID":"2022-098E","EPOCH":"2026-07-18T07:27:43.569216","CLASSIFICATION_TYPE":"U","MEAN_MOTION":15.74437207,"ECCENTRICITY":0.00039243,"INCLINATION":97.5623,"RA_OF_ASC_NODE":332.5981,"ARG_OF_PERICENTER":219.8068,"MEAN_ANOMALY":140.2908,"EPHEMERIS_TYPE":0,"NORAD_CAT_ID":53448,"ELEMENT_SET_NO":999,"REV_AT_EPOCH":21958,"BSTAR":0.00042624003,"MEAN_MOTION_DOT":0.00061887,"MEAN_MOTION_DDOT":0},{"OBJECT_NAME":"JILIN-1 GAOFEN 03D08","OBJECT_ID":"2022-155A","EPOCH":"2026-07-18T08:13:40.230336","CLASSIFICATION_TYPE":"U","MEAN_MOTION":15.67823569,"ECCENTRICITY":0.0004451,"INCLINATION":97.6246,"RA_OF_ASC_NODE":347.3203,"ARG_OF_PERICENTER":217.2616,"MEAN_ANOMALY":142.8336,"EPHEMERIS_TYPE":0,"NORAD_CAT_ID":54251,"ELEMENT_SET_NO":999,"REV_AT_EPOCH":20469,"BSTAR":0.00039051873,"MEAN_MOTION_DOT":0.00042911,"MEAN_MOTION_DDOT":0}]}
