JILIN-1 GAOFEN 3A       
1 44312U 19032C   26199.29894392  .00006390  00000+0  20457-3 0  9990
2 44312  44.9733 185.6240 0004871 128.2524 231.8800 15.33230220392610
JILIN-1 GAOFEN 2A       
1 44777U 19075A   26199.26495317  .00007192  00000+0  18204-3 0  9991
2 44777  97.4957 283.7978 0004865 342.5737  17.5341 15.40060637369663
JILIN-1 GAOFEN 2B       
1 44836U 19086A   26199.26758185  .00003072  00000+0  14137-3 0  9998
2 44836  97.4867 271.0682 0013533 204.5290 155.5303 15.21018597365219
JILIN-1 GAOFEN 3E       
1 46457U 20065D   26199.28453733  .00045357  00000+0  41669-3 0  9993
2 46457  97.2201 252.6964 0009680  62.0705 298.1535 15.67528440324628
JILIN-1 GAOFEN 3F       
1 46458U 20065E   26199.30566341  .00039964  00000+0  41947-3 0  9993
2 46458  97.2159 249.8915 0011005  47.4186 312.8000 15.64190486324565
JILIN-1 GAOFEN 3G       
1 46459U 20065F   26199.29293002  .00081957  00000+0  49315-3 0  9999
2 46459  97.2213 257.2661 0005853 258.5130 101.5480 15.77460477324835
JILIN-1 GAOFEN 3H       
1 46460U 20065G   26199.28207987  .00060927  00000+0  45203-3 0  9993
2 46460  97.2163 253.3649 0006898 192.5522 167.5572 15.72672143324762
JILIN-1 GAOFEN 2D       
1 49256U 21086A   26199.28952082  .00002394  00000+0  14597-3 0  9992
2 49256  97.6512 321.9947 0033797  40.3419 320.0308 15.10878783265415
JILIN-1 GAOFEN 2F       
1 49338U 21097A   26199.29107333  .00002279  00000+0  15187-3 0  9995
2 49338  97.6740 325.4231 0019967 119.8817 240.4398 15.07962522261007
JILIN-1 GAOFEN 3D27     
1 52444U 22048B   26199.26224306  .00132938  00000+0  59295-3 0  9995
2 52444  97.5738 316.2229 0005730 237.5678 122.5037 15.83885329234380
JILIN-1 GAOFEN 3D28     
1 52445U 22048C   26199.30884145  .00184559  14429-4  64637-3 0  9991
2 52445  97.5671 316.5989 0005348 238.7128 121.3620 15.89241636234457
JILIN-1 GAOFEN 3D29     
1 52446U 22048D   26199.30993639  .00129475  00000+0  57185-3 0  9992
2 52446  97.5734 316.6419 0004640 222.5255 137.5656 15.84110909234410
JILIN-1 GAOFEN 3D31     
1 52448U 22048F   26199.31664365  .00275290  31936-4  68939-3 0  9999
2 52448  97.5726 318.0542 0006268 241.5659 118.4985 15.95688554234526
JILIN-1 GAOFEN 03D09    
1 53445U 22098B   26199.34249897  .00054328  00000+0  44044-3 0  9995
2 53445  97.5635 331.4532 0003681 221.5876 138.5107 15.70601641219512
JILIN-1 GAOFEN 03D43    
1 53448U 22098E   26199.31092094  .00061887  00000+0  42624-3 0  9990
2 53448  97.5623 332.5981 0003924 219.8068 140.2908 15.74437207219580
JILIN-1 GAOFEN 03D08    
1 54251U 22155A   26199.34282674  .00042911  00000+0  39052-3 0  9993
2 54251  97.6246 347.3203 0004451 217.2616 142.8336 15.67823569204694
